STARLINK-2379_new
1 17798C 21018M   21326.17134880  .00005729  00000-0  38381-3 0  3266
2 17798  53.0552  72.9642 0000897  82.1514 327.4277 15.06398822    19
STARLINK-2379_old
1 27798C 21018M   21325.14204897  .00004550  00000-0  30492-3 0  3253
2 27798  53.0551  77.5846 0000910  87.7675 136.8114 15.06388371    10
